[
  {
    "COMMENT": "GENERATED VIA SPACETRACK.ORG API",
    "ORIGINATOR": "18 SPCS",
    "NORAD_CAT_ID": "41240",
    "OBJECT_NAME": "JASON 3",
    "OBJECT_TYPE": "PAYLOAD",
    "CLASSIFICATION_TYPE": "U",
    "INTLDES": "16002A",
    "EPOCH": "2023-05-31 22:17:53",
    "EPOCH_MICROSECONDS": "700864",
    "MEAN_MOTION": "12.80928641",
    "ECCENTRICITY": "0.0007728",
    "INCLINATION": "66.0418",
    "RA_OF_ASC_NODE": "285.2827",
    "ARG_OF_PERICENTER": "271.0954",
    "MEAN_ANOMALY": "88.9176",
    "EPHEMERIS_TYPE": "0",
    "ELEMENT_SET_NO": "999",
    "REV_AT_EPOCH": "34454",
    "BSTAR": "0.000079643",
    "MEAN_MOTION_DOT": "-0.00000043",
    "MEAN_MOTION_DDOT": "0",
    "FILE": "3922037",
    "TLE_LINE0": "0 JASON 3",
    "TLE_LINE1": "1 41240U 16002A   23151.92909376 -.00000043  00000-0  79643-4 0  9998",
    "TLE_LINE2": "2 41240  66.0418 285.2827 0007728 271.0954  88.9176 12.80928641344544",
    "OBJECT_ID": "2016-002A",
    "OBJECT_NUMBER": "41240",
    "SEMIMAJOR_AXIS": "7715.876",
    "PERIOD": "112.418",
    "APOGEE": "1343.703",
    "PERIGEE": "1331.778",
    "DECAYED": "0"
  },
  {
    "COMMENT": "GENERATED VIA SPACETRACK.ORG API",
    "ORIGINATOR": "18 SPCS",
    "NORAD_CAT_ID": "41240",
    "OBJECT_NAME": "JASON 3",
    "OBJECT_TYPE": "PAYLOAD",
    "CLASSIFICATION_TYPE": "U",
    "INTLDES": "16002A",
    "EPOCH": "2023-06-01 09:32:28",
    "EPOCH_MICROSECONDS": "307040",
    "MEAN_MOTION": "12.80928667",
    "ECCENTRICITY": "0.000773",
    "INCLINATION": "66.0418",
    "RA_OF_ASC_NODE": "284.3098",
    "ARG_OF_PERICENTER": "271.0659",
    "MEAN_ANOMALY": "88.9471",
    "EPHEMERIS_TYPE": "0",
    "ELEMENT_SET_NO": "999",
    "REV_AT_EPOCH": "34460",
    "BSTAR": "0.000066137",
    "MEAN_MOTION_DOT": "-0.00000046",
    "MEAN_MOTION_DDOT": "0",
    "FILE": "3922365",
    "TLE_LINE0": "0 JASON 3",
    "TLE_LINE1": "1 41240U 16002A   23152.39754985 -.00000046  00000-0  66137-4 0  9991",
    "TLE_LINE2": "2 41240  66.0418 284.3098 0007730 271.0659  88.9471 12.80928667344602",
    "OBJECT_ID": "2016-002A",
    "OBJECT_NUMBER": "41240",
    "SEMIMAJOR_AXIS": "7715.875",
    "PERIOD": "112.418",
    "APOGEE": "1343.705",
    "PERIGEE": "1331.776",
    "DECAYED": "0"
  },
  {
    "COMMENT": "GENERATED VIA SPACETRACK.ORG API",
    "ORIGINATOR": "18 SPCS",
    "NORAD_CAT_ID": "41240",
    "OBJECT_NAME": "JASON 3",
    "OBJECT_TYPE": "PAYLOAD",
    "CLASSIFICATION_TYPE": "U",
    "INTLDES": "16002A",
    "EPOCH": "2023-06-01 20:47:02",
    "EPOCH_MICROSECONDS": "908032",
    "MEAN_MOTION": "12.80928772",
    "ECCENTRICITY": "0.0007734",
    "INCLINATION": "66.0418",
    "RA_OF_ASC_NODE": "283.3368",
    "ARG_OF_PERICENTER": "271.056",
    "MEAN_ANOMALY": "88.957",
    "EPHEMERIS_TYPE": "0",
    "ELEMENT_SET_NO": "999",
    "REV_AT_EPOCH": "34480",
    "BSTAR": "0.00015664",
    "MEAN_MOTION_DOT": "-0.00000025",
    "MEAN_MOTION_DDOT": "0",
    "FILE": "3922480",
    "TLE_LINE0": "0 JASON 3",
    "TLE_LINE1": "1 41240U 16002A   23152.86600588 -.00000025  00000-0  15664-3 0  9997",
    "TLE_LINE2": "2 41240  66.0418 283.3368 0007734 271.0560  88.9570 12.80928772344805",
    "OBJECT_ID": "2016-002A",
    "OBJECT_NUMBER": "41240",
    "SEMIMAJOR_AXIS": "7715.875",
    "PERIOD": "112.418",
    "APOGEE": "1343.708",
    "PERIGEE": "1331.773",
    "DECAYED": "0"
  },
  {
    "COMMENT": "GENERATED VIA SPACETRACK.ORG API",
    "ORIGINATOR": "18 SPCS",
    "NORAD_CAT_ID": "41240",
    "OBJECT_NAME": "JASON 3",
    "OBJECT_TYPE": "PAYLOAD",
    "CLASSIFICATION_TYPE": "U",
    "INTLDES": "16002A",
    "EPOCH": "2023-06-01 20:47:02",
    "EPOCH_MICROSECONDS": "908032",
    "MEAN_MOTION": "12.80928772",
    "ECCENTRICITY": "0.0007734",
    "INCLINATION": "66.0418",
    "RA_OF_ASC_NODE": "283.3368",
    "ARG_OF_PERICENTER": "271.056",
    "MEAN_ANOMALY": "88.957",
    "EPHEMERIS_TYPE": "0",
    "ELEMENT_SET_NO": "999",
    "REV_AT_EPOCH": "34466",
    "BSTAR": "0.00015664",
    "MEAN_MOTION_DOT": "-0.00000025",
    "MEAN_MOTION_DDOT": "0",
    "FILE": "3922718",
    "TLE_LINE0": "0 JASON 3",
    "TLE_LINE1": "1 41240U 16002A   23152.86600588 -.00000025  00000-0  15664-3 0  9997",
    "TLE_LINE2": "2 41240  66.0418 283.3368 0007734 271.0560  88.9570 12.80928772344669",
    "OBJECT_ID": "2016-002A",
    "OBJECT_NUMBER": "41240",
    "SEMIMAJOR_AXIS": "7715.875",
    "PERIOD": "112.418",
    "APOGEE": "1343.708",
    "PERIGEE": "1331.773",
    "DECAYED": "0"
  },
  {
    "COMMENT": "GENERATED VIA SPACETRACK.ORG API",
    "ORIGINATOR": "18 SPCS",
    "NORAD_CAT_ID": "41240",
    "OBJECT_NAME": "JASON 3",
    "OBJECT_TYPE": "PAYLOAD",
    "CLASSIFICATION_TYPE": "U",
    "INTLDES": "16002A",
    "EPOCH": "2023-06-02 13:38:54",
    "EPOCH_MICROSECONDS": "816000",
    "MEAN_MOTION": "12.80928726",
    "ECCENTRICITY": "0.0007747",
    "INCLINATION": "66.0418",
    "RA_OF_ASC_NODE": "281.8774",
    "ARG_OF_PERICENTER": "270.9926",
    "MEAN_ANOMALY": "89.0201",
    "EPHEMERIS_TYPE": "0",
    "ELEMENT_SET_NO": "999",
    "REV_AT_EPOCH": "34475",
    "BSTAR": "0.000070506",
    "MEAN_MOTION_DOT": "-0.00000045",
    "MEAN_MOTION_DDOT": "0",
    "FILE": "3923342",
    "TLE_LINE0": "0 JASON 3",
    "TLE_LINE1": "1 41240U 16002A   23153.56869000 -.00000045  00000-0  70506-4 0  9990",
    "TLE_LINE2": "2 41240  66.0418 281.8774 0007747 270.9926  89.0201 12.80928726344753",
    "OBJECT_ID": "2016-002A",
    "OBJECT_NUMBER": "41240",
    "SEMIMAJOR_AXIS": "7715.875",
    "PERIOD": "112.418",
    "APOGEE": "1343.718",
    "PERIGEE": "1331.763",
    "DECAYED": "0"
  },
  {
    "COMMENT": "GENERATED VIA SPACETRACK.ORG API",
    "ORIGINATOR": "18 SPCS",
    "NORAD_CAT_ID": "41240",
    "OBJECT_NAME": "JASON 3",
    "OBJECT_TYPE": "PAYLOAD",
    "CLASSIFICATION_TYPE": "U",
    "INTLDES": "16002A",
    "EPOCH": "2023-06-02 17:23:46",
    "EPOCH_MICROSECONDS": "349664",
    "MEAN_MOTION": "12.80928762",
    "ECCENTRICITY": "0.0007751",
    "INCLINATION": "66.0418",
    "RA_OF_ASC_NODE": "281.553",
    "ARG_OF_PERICENTER": "270.9925",
    "MEAN_ANOMALY": "89.0202",
    "EPHEMERIS_TYPE": "0",
    "ELEMENT_SET_NO": "999",
    "REV_AT_EPOCH": "34477",
    "BSTAR": "0.000099595",
    "MEAN_MOTION_DOT": "-0.00000038",
    "MEAN_MOTION_DDOT": "0",
    "FILE": "3923570",
    "TLE_LINE0": "0 JASON 3",
    "TLE_LINE1": "1 41240U 16002A   23153.72484201 -.00000038  00000-0  99595-4 0  9995",
    "TLE_LINE2": "2 41240  66.0418 281.5530 0007751 270.9925  89.0202 12.80928762344777",
    "OBJECT_ID": "2016-002A",
    "OBJECT_NUMBER": "41240",
    "SEMIMAJOR_AXIS": "7715.875",
    "PERIOD": "112.418",
    "APOGEE": "1343.721",
    "PERIGEE": "1331.760",
    "DECAYED": "0"
  },
  {
    "COMMENT": "GENERATED VIA SPACETRACK.ORG API",
    "ORIGINATOR": "18 SPCS",
    "NORAD_CAT_ID": "41240",
    "OBJECT_NAME": "JASON 3",
    "OBJECT_TYPE": "PAYLOAD",
    "CLASSIFICATION_TYPE": "U",
    "INTLDES": "16002A",
    "EPOCH": "2023-06-03 02:45:55",
    "EPOCH_MICROSECONDS": "184256",
    "MEAN_MOTION": "12.80928796",
    "ECCENTRICITY": "0.0007757",
    "INCLINATION": "66.0418",
    "RA_OF_ASC_NODE": "280.7422",
    "ARG_OF_PERICENTER": "270.9528",
    "MEAN_ANOMALY": "89.0599",
    "EPHEMERIS_TYPE": "0",
    "ELEMENT_SET_NO": "999",
    "REV_AT_EPOCH": "34496",
    "BSTAR": "0.00011131",
    "MEAN_MOTION_DOT": "-0.00000035",
    "MEAN_MOTION_DDOT": "0",
    "FILE": "3923619",
    "TLE_LINE0": "0 JASON 3",
    "TLE_LINE1": "1 41240U 16002A   23154.11522204 -.00000035  00000-0  11131-3 0  9991",
    "TLE_LINE2": "2 41240  66.0418 280.7422 0007757 270.9528  89.0599 12.80928796344960",
    "OBJECT_ID": "2016-002A",
    "OBJECT_NUMBER": "41240",
    "SEMIMAJOR_AXIS": "7715.875",
    "PERIOD": "112.418",
    "APOGEE": "1343.725",
    "PERIGEE": "1331.755",
    "DECAYED": "0"
  },
  {
    "COMMENT": "GENERATED VIA SPACETRACK.ORG API",
    "ORIGINATOR": "18 SPCS",
    "NORAD_CAT_ID": "41240",
    "OBJECT_NAME": "JASON 3",
    "OBJECT_TYPE": "PAYLOAD",
    "CLASSIFICATION_TYPE": "U",
    "INTLDES": "16002A",
    "EPOCH": "2023-06-03 14:00:29",
    "EPOCH_MICROSECONDS": "790432",
    "MEAN_MOTION": "12.80928785",
    "ECCENTRICITY": "0.0007762",
    "INCLINATION": "66.0418",
    "RA_OF_ASC_NODE": "279.7693",
    "ARG_OF_PERICENTER": "270.9256",
    "MEAN_ANOMALY": "89.087",
    "EPHEMERIS_TYPE": "0",
    "ELEMENT_SET_NO": "999",
    "REV_AT_EPOCH": "34488",
    "BSTAR": "0.00009515",
    "MEAN_MOTION_DOT": "-0.00000039",
    "MEAN_MOTION_DDOT": "0",
    "FILE": "3924076",
    "TLE_LINE0": "0 JASON 3",
    "TLE_LINE1": "1 41240U 16002A   23154.58367813 -.00000039  00000-0  95150-4 0  9993",
    "TLE_LINE2": "2 41240  66.0418 279.7693 0007762 270.9256  89.0870 12.80928785344883",
    "OBJECT_ID": "2016-002A",
    "OBJECT_NUMBER": "41240",
    "SEMIMAJOR_AXIS": "7715.875",
    "PERIOD": "112.418",
    "APOGEE": "1343.729",
    "PERIGEE": "1331.751",
    "DECAYED": "0"
  },
  {
    "COMMENT": "GENERATED VIA SPACETRACK.ORG API",
    "ORIGINATOR": "18 SPCS",
    "NORAD_CAT_ID": "41240",
    "OBJECT_NAME": "JASON 3",
    "OBJECT_TYPE": "PAYLOAD",
    "CLASSIFICATION_TYPE": "U",
    "INTLDES": "16002A",
    "EPOCH": "2023-06-03 21:30:12",
    "EPOCH_MICROSECONDS": "861216",
    "MEAN_MOTION": "12.80928796",
    "ECCENTRICITY": "0.0007767",
    "INCLINATION": "66.0418",
    "RA_OF_ASC_NODE": "279.1206",
    "ARG_OF_PERICENTER": "270.91",
    "MEAN_ANOMALY": "89.1025",
    "EPHEMERIS_TYPE": "0",
    "ELEMENT_SET_NO": "999",
    "REV_AT_EPOCH": "34492",
    "BSTAR": "0.00011279",
    "MEAN_MOTION_DOT": "-0.00000035",
    "MEAN_MOTION_DDOT": "0",
    "FILE": "3924324",
    "TLE_LINE0": "0 JASON 3",
    "TLE_LINE1": "1 41240U 16002A   23154.89598219 -.00000035  00000-0  11279-3 0  9998",
    "TLE_LINE2": "2 41240  66.0418 279.1206 0007767 270.9100  89.1025 12.80928796344920",
    "OBJECT_ID": "2016-002A",
    "OBJECT_NUMBER": "41240",
    "SEMIMAJOR_AXIS": "7715.875",
    "PERIOD": "112.418",
    "APOGEE": "1343.733",
    "PERIGEE": "1331.747",
    "DECAYED": "0"
  }
]